{"type": "FeatureCollection", "features": [ {"type": "Feature", "properties": {"norad_id": 42741, "name": "EUTELSAT 172B", "group": "eutelsat", "lat": 0.020398286009676744, "lon": 154.48929498019578, "alt_km": 35785.645103731185, "timestamp": "2025-12-21T16:47:54.400419+00:00", "meta": {"OBJECT_NAME": "EUTELSAT 172B", "OBJECT_ID": "2017-029B", "EPOCH": "2025-12-21T03:54:38.769408", "MEAN_MOTION": 1.00271576, "ECCENTRICITY": 2.14e-05, "INCLINATION": 0.0339, "RA_OF_ASC_NODE": 123.0997, "ARG_OF_PERICENTER": 332.7082, "MEAN_ANOMALY": 224.8432, "EPHEMERIS_TYPE": 0, "CLASSIFICATION_TYPE": "U", "NORAD_CAT_ID": 42741, "ELEMENT_SET_NO": 999, "REV_AT_EPOCH": 3194, "BSTAR": 0, "MEAN_MOTION_DOT": 1.7e-07, "MEAN_MOTION_DDOT": 0}, "tle": {"line1": "1 42741U 17029B   25355.16294872  .00000017  00000+0  00000+0 0  9992", "line2": "2 42741   0.0339 123.0997 0000214 332.7082 224.8432  1.00271576 31949"}}, "geometry": {"type": "Point", "coordinates": [154.48929498019578, 0.020398286009676744]}}, {"type": "Feature", "properties": {"norad_id": 44334, "name": "EUTELSAT 7C", "group": "eutelsat", "lat": 0.006390689938664009, "lon": -10.48053556592506, "alt_km": 35785.505073895605, "timestamp": "2025-12-21T16:47:54.400431+00:00", "meta": {"OBJECT_NAME": "EUTELSAT 7C", "OBJECT_ID": "2019-034B", "EPOCH": "2025-12-21T06:43:38.847072", "MEAN_MOTION": 1.00275605, "ECCENTRICITY": 0.0003295, "INCLINATION": 0.0735, "RA_OF_ASC_NODE": 179.9095, "ARG_OF_PERICENTER": 77.2937, "MEAN_ANOMALY": 300.8021, "EPHEMERIS_TYPE": 0, "CLASSIFICATION_TYPE": "U", "NORAD_CAT_ID": 44334, "ELEMENT_SET_NO": 999, "REV_AT_EPOCH": 505, "BSTAR": 0, "MEAN_MOTION_DOT": 7.2e-07, "MEAN_MOTION_DDOT": 0}, "tle": {"line1": "1 44334U 19034B   25355.28031073  .00000072  00000+0  00000+0 0  9996", "line2": "2 44334   0.0735 179.9095 0003295  77.2937 300.8021  1.00275605  5059"}}, "geometry": {"type": "Point", "coordinates": [-10.48053556592506, 0.006390689938664009]}}, {"type": "Feature", "properties": {"norad_id": 44624, "name": "EUTELSAT 5 WEST B", "group": "eutelsat", "lat": -0.007672399503454021, "lon": -22.47994205095609, "alt_km": 35781.313989013295, "timestamp": "2025-12-21T16:47:54.400446+00:00", "meta": {"OBJECT_NAME": "EUTELSAT 5 WEST B", "OBJECT_ID": "2019-067A", "EPOCH": "2025-12-21T09:44:56.694336", "MEAN_MOTION": 1.00271339, "ECCENTRICITY": 0.0003009, "INCLINATION": 0.0661, "RA_OF_ASC_NODE": 336.7773, "ARG_OF_PERICENTER": 293.2552, "MEAN_ANOMALY": 321.4345, "EPHEMERIS_TYPE": 0, "CLASSIFICATION_TYPE": "U", "NORAD_CAT_ID": 44624, "ELEMENT_SET_NO": 999, "REV_AT_EPOCH": 2265, "BSTAR": 0, "MEAN_MOTION_DOT": -1.9e-07, "MEAN_MOTION_DDOT": 0}, "tle": {"line1": "1 44624U 19067A   25355.40621174 -.00000019  00000+0  00000+0 0  9997", "line2": "2 44624   0.0661 336.7773 0003009 293.2552 321.4345  1.00271339 22654"}}, "geometry": {"type": "Point", "coordinates": [-22.47994205095609, -0.007672399503454021]}}, {"type": "Feature", "properties": {"norad_id": 45027, "name": "EUTELSAT KONNECT", "group": "eutelsat", "lat": -0.0681509240798354, "lon": -10.31093185486233, "alt_km": 35787.92014300875, "timestamp": "2025-12-21T16:47:54.400458+00:00", "meta": {"OBJECT_NAME": "EUTELSAT KONNECT", "OBJECT_ID": "2020-005B", "EPOCH": "2025-12-21T08:05:43.696320", "MEAN_MOTION": 1.00264528, "ECCENTRICITY": 0.0001118, "INCLINATION": 0.0691, "RA_OF_ASC_NODE": 94.9021, "ARG_OF_PERICENTER": 166.8613, "MEAN_ANOMALY": 317.0282, "EPHEMERIS_TYPE": 0, "CLASSIFICATION_TYPE": "U", "NORAD_CAT_ID": 45027, "ELEMENT_SET_NO": 999, "REV_AT_EPOCH": 2255, "BSTAR": 0, "MEAN_MOTION_DOT": 7.1e-07, "MEAN_MOTION_DDOT": 0}, "tle": {"line1": "1 45027U 20005B   25355.33731130  .00000071  00000+0  00000+0 0  9992", "line2": "2 45027   0.0691  94.9021 0001118 166.8613 317.0282  1.00264528 22558"}}, "geometry": {"type": "Point", "coordinates": [-10.31093185486233, -0.0681509240798354]}}, {"type": "Feature", "properties": {"norad_id": 49056, "name": "EUTELSAT QUANTUM", "group": "eutelsat", "lat": 0.003400216754818938, "lon": 30.227838250112317, "alt_km": 35790.81052092443, "timestamp": "2025-12-21T16:47:54.400469+00:00", "meta": {"OBJECT_NAME": "EUTELSAT QUANTUM", "OBJECT_ID": "2021-069B", "EPOCH": "2025-12-21T09:59:47.771232", "MEAN_MOTION": 1.00272395, "ECCENTRICITY": 0.0003348, "INCLINATION": 0.0212, "RA_OF_ASC_NODE": 40.4204, "ARG_OF_PERICENTER": 239.5399, "MEAN_ANOMALY": 7.9319, "EPHEMERIS_TYPE": 0, "CLASSIFICATION_TYPE": "U", "NORAD_CAT_ID": 49056, "ELEMENT_SET_NO": 999, "REV_AT_EPOCH": 1614, "BSTAR": 0, "MEAN_MOTION_DOT": 1.48e-06, "MEAN_MOTION_DDOT": 0}, "tle": {"line1": "1 49056U 21069B   25355.41652513  .00000148  00000+0  00000+0 0  9990", "line2": "2 49056   0.0212  40.4204 0003348 239.5399   7.9319  1.00272395 16143"}}, "geometry": {"type": "Point", "coordinates": [30.227838250112317, 0.003400216754818938]}}, {"type": "Feature", "properties": {"norad_id": 53765, "name": "EUTELSAT KONNECT VHTS", "group": "eutelsat", "lat": -0.0587885765092031, "lon": -14.74951371904328, "alt_km": 35790.96874984498, "timestamp": "2025-12-21T16:47:54.400480+00:00", "meta": {"OBJECT_NAME": "EUTELSAT KONNECT VHTS", "OBJECT_ID": "2022-110A", "EPOCH": "2025-12-21T09:47:03.990048", "MEAN_MOTION": 1.00269954, "ECCENTRICITY": 0.0002638, "INCLINATION": 0.0616, "RA_OF_ASC_NODE": 99.389, "ARG_OF_PERICENTER": 132.3809, "MEAN_ANOMALY": 7.9646, "EPHEMERIS_TYPE": 0, "CLASSIFICATION_TYPE": "U", "NORAD_CAT_ID": 53765, "ELEMENT_SET_NO": 999, "REV_AT_EPOCH": 504, "BSTAR": 0, "MEAN_MOTION_DOT": 4e-07, "MEAN_MOTION_DDOT": 0}, "tle": {"line1": "1 53765U 22110A   25355.40768507  .00000040  00000+0  00000+0 0  9991", "line2": "2 53765   0.0616  99.3890 0002638 132.3809   7.9646  1.00269954  5041"}}, "geometry": {"type": "Point", "coordinates": [-14.74951371904328, -0.0587885765092031]}}, {"type": "Feature", "properties": {"norad_id": 54048, "name": "EUTELSAT HOTBIRD 13F", "group": "eutelsat", "lat": 0.04167623667320909, "lon": -4.529946187479544, "alt_km": 35777.03528746045, "timestamp": "2025-12-21T16:47:54.400492+00:00", "meta": {"OBJECT_NAME": "EUTELSAT HOTBIRD 13F", "OBJECT_ID": "2022-134A", "EPOCH": "2025-12-21T06:42:50.848416", "MEAN_MOTION": 1.00269817, "ECCENTRICITY": 0.0002333, "INCLINATION": 0.052, "RA_OF_ASC_NODE": 291.9077, "ARG_OF_PERICENTER": 75.9758, "MEAN_ANOMALY": 195.9245, "EPHEMERIS_TYPE": 0, "CLASSIFICATION_TYPE": "U", "NORAD_CAT_ID": 54048, "ELEMENT_SET_NO": 999, "REV_AT_EPOCH": 1159, "BSTAR": 0, "MEAN_MOTION_DOT": 1.1e-06, "MEAN_MOTION_DDOT": 0}, "tle": {"line1": "1 54048U 22134A   25355.27975519  .00000110  00000+0  00000+0 0  9998", "line2": "2 54048   0.0520 291.9077 0002333  75.9758 195.9245  1.00269817 11592"}}, "geometry": {"type": "Point", "coordinates": [-4.529946187479544, 0.04167623667320909]}}, {"type": "Feature", "properties": {"norad_id": 54225, "name": "EUTELSAT HOTBIRD 13G", "group": "eutelsat", "lat": 0.032762382015545814, "lon": -4.524194591342867, "alt_km": 35794.48116694943, "timestamp": "2025-12-21T16:47:54.400503+00:00", "meta": {"OBJECT_NAME": "EUTELSAT HOTBIRD 13G", "OBJECT_ID": "2022-146A", "EPOCH": "2025-12-21T08:07:28.528032", "MEAN_MOTION": 1.00270673, "ECCENTRICITY": 0.0001938, "INCLINATION": 0.053, "RA_OF_ASC_NODE": 228.376, "ARG_OF_PERICENTER": 305.0726, "MEAN_ANOMALY": 51.5735, "EPHEMERIS_TYPE": 0, "CLASSIFICATION_TYPE": "U", "NORAD_CAT_ID": 54225, "ELEMENT_SET_NO": 999, "REV_AT_EPOCH": 568, "BSTAR": 0, "MEAN_MOTION_DOT": 1.1e-06, "MEAN_MOTION_DDOT": 0}, "tle": {"line1": "1 54225U 22146A   25355.33852463  .00000110  00000+0  00000+0 0  9997", "line2": "2 54225   0.0530 228.3760 0001938 305.0726  51.5735  1.00270673  5681"}}, "geometry": {"type": "Point", "coordinates": [-4.524194591342867, 0.032762382015545814]}}, {"type": "Feature", "properties": {"norad_id": 54259, "name": "EUTELSAT 10B", "group": "eutelsat", "lat": -0.05886401401089863, "lon": -7.523952156733754, "alt_km": 35791.75270486653, "timestamp": "2025-12-21T16:47:54.400515+00:00", "meta": {"OBJECT_NAME": "EUTELSAT 10B", "OBJECT_ID": "2022-157A", "EPOCH": "2025-12-21T08:06:36.110880", "MEAN_MOTION": 1.00265489, "ECCENTRICITY": 0.0001253, "INCLINATION": 0.0606, "RA_OF_ASC_NODE": 94.5139, "ARG_OF_PERICENTER": 36.2048, "MEAN_ANOMALY": 91.1001, "EPHEMERIS_TYPE": 0, "CLASSIFICATION_TYPE": "U", "NORAD_CAT_ID": 54259, "ELEMENT_SET_NO": 999, "REV_AT_EPOCH": 1124, "BSTAR": 0, "MEAN_MOTION_DOT": 9e-07, "MEAN_MOTION_DDOT": 0}, "tle": {"line1": "1 54259U 22157A   25355.33791795  .00000090  00000+0  00000+0 0  9993", "line2": "2 54259   0.0606  94.5139 0001253  36.2048  91.1001  1.00265489 11249"}}, "geometry": {"type": "Point", "coordinates": [-7.523952156733754, -0.05886401401089863]}}, {"type": "Feature", "properties": {"norad_id": 59346, "name": "EUTELSAT 36D", "group": "eutelsat", "lat": -0.0012958260935349868, "lon": 18.336228373695363, "alt_km": 35784.14020956498, "timestamp": "2025-12-21T16:47:54.400526+00:00", "meta": {"OBJECT_NAME": "EUTELSAT 36D", "OBJECT_ID": "2024-059A", "EPOCH": "2025-12-21T11:39:26.602848", "MEAN_MOTION": 1.00272156, "ECCENTRICITY": 4.38e-05, "INCLINATION": 0.0244, "RA_OF_ASC_NODE": 29.7996, "ARG_OF_PERICENTER": 338.8651, "MEAN_ANOMALY": 292.3516, "EPHEMERIS_TYPE": 0, "CLASSIFICATION_TYPE": "U", "NORAD_CAT_ID": 59346, "ELEMENT_SET_NO": 999, "REV_AT_EPOCH": 636, "BSTAR": 0, "MEAN_MOTION_DOT": 0, "MEAN_MOTION_DDOT": 0}, "tle": {"line1": "1 59346U 24059A   25355.48572457  .00000000  00000+0  00000+0 0  9997", "line2": "2 59346   0.0244  29.7996 0000438 338.8651 292.3516  1.00272156  6367"}}, "geometry": {"type": "Point", "coordinates": [18.336228373695363, -0.0012958260935349868]}}]}